[
    {
        "OBJECT_NAME": "BEIDOU-2 G7",
        "OBJECT_ID": "2016-037A",
        "EPOCH": "2026-07-22T15:16:09.771744",
        "MEAN_MOTION": 1.00270266,
        "ECCENTRICITY": 0.00061561,
        "INCLINATION": 1.8061,
        "RA_OF_ASC_NODE": 69.5594,
        "ARG_OF_PERICENTER": 1.8546,
        "MEAN_ANOMALY": 208.5568,
        "EPHEMERIS_TYPE": 0,
        "CLASSIFICATION_TYPE": "U",
        "NORAD_CAT_ID": 41586,
        "ELEMENT_SET_NO": 999,
        "REV_AT_EPOCH": 724,
        "BSTAR": 0,
        "MEAN_MOTION_DOT": -3.51e-06,
        "MEAN_MOTION_DDOT": 0
    },
    {
        "OBJECT_NAME": "BEIDOU-3 M1",
        "OBJECT_ID": "2017-069A",
        "EPOCH": "2026-07-20T23:04:14.085696",
        "MEAN_MOTION": 1.86231306,
        "ECCENTRICITY": 0.0008832,
        "INCLINATION": 56.7221,
        "RA_OF_ASC_NODE": 61.9715,
        "ARG_OF_PERICENTER": 327.7311,
        "MEAN_ANOMALY": 32.2769,
        "EPHEMERIS_TYPE": 0,
        "CLASSIFICATION_TYPE": "U",
        "NORAD_CAT_ID": 43001,
        "ELEMENT_SET_NO": 999,
        "REV_AT_EPOCH": 5923,
        "BSTAR": 0,
        "MEAN_MOTION_DOT": -7.9e-07,
        "MEAN_MOTION_DDOT": 0
    },
    {
        "OBJECT_NAME": "BEIDOU-3 M2",
        "OBJECT_ID": "2017-069B",
        "EPOCH": "2026-07-20T21:36:08.493120",
        "MEAN_MOTION": 1.8623031,
        "ECCENTRICITY": 0.00078073,
        "INCLINATION": 56.7212,
        "RA_OF_ASC_NODE": 62.0097,
        "ARG_OF_PERICENTER": 355.9026,
        "MEAN_ANOMALY": 4.1531,
        "EPHEMERIS_TYPE": 0,
        "CLASSIFICATION_TYPE": "U",
        "NORAD_CAT_ID": 43002,
        "ELEMENT_SET_NO": 999,
        "REV_AT_EPOCH": 5922,
        "BSTAR": 0,
        "MEAN_MOTION_DOT": -7.9e-07,
        "MEAN_MOTION_DDOT": 0
    },
    {
        "OBJECT_NAME": "BEIDOU-3 M7",
        "OBJECT_ID": "2018-003A",
        "EPOCH": "2026-07-21T04:17:51.196992",
        "MEAN_MOTION": 1.86228037,
        "ECCENTRICITY": 0.00042553,
        "INCLINATION": 54.2951,
        "RA_OF_ASC_NODE": 301.1285,
        "ARG_OF_PERICENTER": 100.7931,
        "MEAN_ANOMALY": 259.2886,
        "EPHEMERIS_TYPE": 0,
        "CLASSIFICATION_TYPE": "U",
        "NORAD_CAT_ID": 43107,
        "ELEMENT_SET_NO": 999,
        "REV_AT_EPOCH": 5798,
        "BSTAR": 0,
        "MEAN_MOTION_DOT": -1.01e-06,
        "MEAN_MOTION_DDOT": 0
    },
    {
        "OBJECT_NAME": "BEIDOU-3 M8",
        "OBJECT_ID": "2018-003B",
        "EPOCH": "2026-07-21T15:50:46.260960",
        "MEAN_MOTION": 1.86230921,
        "ECCENTRICITY": 0.00031321,
        "INCLINATION": 54.2876,
        "RA_OF_ASC_NODE": 301.0931,
        "ARG_OF_PERICENTER": 256.3194,
        "MEAN_ANOMALY": 103.6796,
        "EPHEMERIS_TYPE": 0,
        "CLASSIFICATION_TYPE": "U",
        "NORAD_CAT_ID": 43108,
        "ELEMENT_SET_NO": 999,
        "REV_AT_EPOCH": 5800,
        "BSTAR": 0,
        "MEAN_MOTION_DOT": -1.01e-06,
        "MEAN_MOTION_DDOT": 0
    },
    {
        "OBJECT_NAME": "BEIDOU-3 M4",
        "OBJECT_ID": "2018-018A",
        "EPOCH": "2026-07-21T00:42:34.775424",
        "MEAN_MOTION": 1.86231251,
        "ECCENTRICITY": 0.00071447,
        "INCLINATION": 56.6812,
        "RA_OF_ASC_NODE": 62.0321,
        "ARG_OF_PERICENTER": 31.415,
        "MEAN_ANOMALY": 328.6897,
        "EPHEMERIS_TYPE": 0,
        "CLASSIFICATION_TYPE": "U",
        "NORAD_CAT_ID": 43207,
        "ELEMENT_SET_NO": 999,
        "REV_AT_EPOCH": 5737,
        "BSTAR": 0,
        "MEAN_MOTION_DOT": -8e-07,
        "MEAN_MOTION_DDOT": 0
    },
    {
        "OBJECT_NAME": "BEIDOU-3 M3",
        "OBJECT_ID": "2018-018B",
        "EPOCH": "2026-07-21T15:11:33.569952",
        "MEAN_MOTION": 1.86231119,
        "ECCENTRICITY": 0.00072012,
        "INCLINATION": 56.6811,
        "RA_OF_ASC_NODE": 62.0163,
        "ARG_OF_PERICENTER": 348.0427,
        "MEAN_ANOMALY": 12.0023,
        "EPHEMERIS_TYPE": 0,
        "CLASSIFICATION_TYPE": "U",
        "NORAD_CAT_ID": 43208,
        "ELEMENT_SET_NO": 999,
        "REV_AT_EPOCH": 5738,
        "BSTAR": 0,
        "MEAN_MOTION_DOT": -7.9e-07,
        "MEAN_MOTION_DDOT": 0
    },
    {
        "OBJECT_NAME": "BEIDOU-3 M9",
        "OBJECT_ID": "2018-029A",
        "EPOCH": "2026-07-20T18:39:06.446016",
        "MEAN_MOTION": 1.86228484,
        "ECCENTRICITY": 0.00012157,
        "INCLINATION": 54.1608,
        "RA_OF_ASC_NODE": 298.7724,
        "ARG_OF_PERICENTER": 191.8898,
        "MEAN_ANOMALY": 168.1446,
        "EPHEMERIS_TYPE": 0,
        "CLASSIFICATION_TYPE": "U",
        "NORAD_CAT_ID": 43245,
        "ELEMENT_SET_NO": 999,
        "REV_AT_EPOCH": 5652,
        "BSTAR": 0,
        "MEAN_MOTION_DOT": -9.8e-07,
        "MEAN_MOTION_DDOT": 0
    },
    {
        "OBJECT_NAME": "BEIDOU-3 M10",
        "OBJECT_ID": "2018-029B",
        "EPOCH": "2026-07-21T18:50:46.328352",
        "MEAN_MOTION": 1.86229141,
        "ECCENTRICITY": 0.00031557,
        "INCLINATION": 54.1581,
        "RA_OF_ASC_NODE": 298.7638,
        "ARG_OF_PERICENTER": 36.7778,
        "MEAN_ANOMALY": 323.2807,
        "EPHEMERIS_TYPE": 0,
        "CLASSIFICATION_TYPE": "U",
        "NORAD_CAT_ID": 43246,
        "ELEMENT_SET_NO": 999,
        "REV_AT_EPOCH": 5652,
        "BSTAR": 0,
        "MEAN_MOTION_DOT": -9.7e-07,
        "MEAN_MOTION_DDOT": 0
    },
    {
        "OBJECT_NAME": "BEIDOU-2 IGSO-7",
        "OBJECT_ID": "2018-057A",
        "EPOCH": "2026-07-16T19:52:42.225600",
        "MEAN_MOTION": 1.00242392,
        "ECCENTRICITY": 0.01049148,
        "INCLINATION": 55.1987,
        "RA_OF_ASC_NODE": 162.7987,
        "ARG_OF_PERICENTER": 237.9691,
        "MEAN_ANOMALY": 299.145,
        "EPHEMERIS_TYPE": 0,
        "CLASSIFICATION_TYPE": "U",
        "NORAD_CAT_ID": 43539,
        "ELEMENT_SET_NO": 999,
        "REV_AT_EPOCH": 2942,
        "BSTAR": 0,
        "MEAN_MOTION_DOT": -8.4e-07,
        "MEAN_MOTION_DDOT": 0
    },
    {
        "OBJECT_NAME": "BEIDOU-3 M5",
        "OBJECT_ID": "2018-062A",
        "EPOCH": "2026-07-21T11:19:57.484704",
        "MEAN_MOTION": 1.86228813,
        "ECCENTRICITY": 0.00056113,
        "INCLINATION": 54.0866,
        "RA_OF_ASC_NODE": 181.1382,
        "ARG_OF_PERICENTER": 294.6649,
        "MEAN_ANOMALY": 65.2579,
        "EPHEMERIS_TYPE": 0,
        "CLASSIFICATION_TYPE": "U",
        "NORAD_CAT_ID": 43581,
        "ELEMENT_SET_NO": 999,
        "REV_AT_EPOCH": 5427,
        "BSTAR": 0,
        "MEAN_MOTION_DOT": 7.8e-07,
        "MEAN_MOTION_DDOT": 0
    },
    {
        "OBJECT_NAME": "BEIDOU-3 M6",
        "OBJECT_ID": "2018-062B",
        "EPOCH": "2026-07-22T09:50:01.127328",
        "MEAN_MOTION": 1.86228094,
        "ECCENTRICITY": 0.00053889,
        "INCLINATION": 54.0863,
        "RA_OF_ASC_NODE": 181.0957,
        "ARG_OF_PERICENTER": 11.3215,
        "MEAN_ANOMALY": 348.673,
        "EPHEMERIS_TYPE": 0,
        "CLASSIFICATION_TYPE": "U",
        "NORAD_CAT_ID": 43582,
        "ELEMENT_SET_NO": 999,
        "REV_AT_EPOCH": 5429,
        "BSTAR": 0,
        "MEAN_MOTION_DOT": 7.6e-07,
        "MEAN_MOTION_DDOT": 0
    },
    {
        "OBJECT_NAME": "BEIDOU-3 M12",
        "OBJECT_ID": "2018-067A",
        "EPOCH": "2026-07-22T08:21:23.451840",
        "MEAN_MOTION": 1.86227636,
        "ECCENTRICITY": 0.00080426,
        "INCLINATION": 54.1814,
        "RA_OF_ASC_NODE": 179.848,
        "ARG_OF_PERICENTER": 30.1591,
        "MEAN_ANOMALY": 329.8681,
        "EPHEMERIS_TYPE": 0,
        "CLASSIFICATION_TYPE": "U",
        "NORAD_CAT_ID": 43602,
        "ELEMENT_SET_NO": 999,
        "REV_AT_EPOCH": 5377,
        "BSTAR": 0,
        "MEAN_MOTION_DOT": 7.5e-07,
        "MEAN_MOTION_DDOT": 0
    }
]
